{
  name: 'DELTA 1 R/B',
  intlDesignator: '1960-009B',
  catalogNumber: '50',
  type: 'ROCKET BODY',
  classificationType: 'U',
  epoch: '2020-09-17 20:35:53.198304Z',
  eccentricity: '0.01137300',
  inclination: '47.2302',
  rightAscension: '194.4763',
  argPericenter: '241.4060',
  meanAnomaly: '117.5247',
  meanMotion: '12.20112540',
  meanMotionDot: '-0.00000065',
  meanMotionDotDot: '0.0000000000000',
  bStar: '0.00018539000000',
  revolutionsAtEpoch: '68150',
  referenceFrame: 'TEME',
  referenceCenter: 'EARTH',
  timeSystem: 'UTC',
  elementSetNumber: '999',
  elementTheory: 'SGP4',
  ephemerisType: '0',
  comment: 'GENERATED VIA SPACE-TRACK.ORG API',
  originator: '18 SPCS',
  file: '2826577',
  tle: [
    '0 DELTA 1 R/B',
    '1    50U 60009B   20261.85825461 -.00000065 +00000-0 +18539-3 0  9991',
    '2    50 047.2302 194.4763 0113730 241.4060 117.5247 12.20112540681506'
  ],
  countryCode: 'US',
  rcsSize: 'MEDIUM',
  launchSiteCode: 'AFETR',
  orbitalPeriod: '118.021'
}